SKYSAT-A                
1 39418U 13066C   26185.71696353  .00003987  00000+0  22798-3 0  9990
2 39418  97.3799 234.5557 0019755 251.9320 107.9760 15.13074898691137
SKYSAT-B                
1 40072U 14037D   26185.87723848  .00001730  00000+0  19485-3 0  9997
2 40072  98.3847 145.8518 0004728 208.3182 151.7776 14.88075391648593
SKYSAT-C1               
1 41601U 16040C   26186.06138831  .00015073  00000+0  42330-3 0  9996
2 41601  96.9551 216.8145 0001497  20.1771 339.9533 15.36622026560611
SKYSAT-C4               
1 41771U 16058B   26185.32375483  .00022372  00000+0  41239-3 0  9994
2 41771  96.9163 206.3834 0002854 134.2708 225.8779 15.49141148548124
SKYSAT-C5               
1 41772U 16058C   26185.84011224  .00013017  00000+0  38859-3 0  9992
2 41772  97.0456 225.6942 0002198 183.2144 176.9087 15.34736407546459
SKYSAT-C2               
1 41773U 16058D   26185.77760887  .00022506  00000+0  52036-3 0  9997
2 41773  97.0161 207.2138 0002783  28.9568 331.1835 15.42495246547764
SKYSAT-C3               
1 41774U 16058E   26186.05714343  .00037140  00000+0  58772-3 0  9999
2 41774  96.8996 216.2241 0001713 133.4537 226.6861 15.53353116548885
SKYSAT-C11              
1 42987U 17068A   26185.65180667  .00046313  00000+0  59785-3 0  9996
2 42987  97.4374 335.2554 0000550 164.1646 195.9627 15.58849535485965
SKYSAT-C10              
1 42988U 17068B   26185.63504780  .00019095  00000+0  56482-3 0  9999
2 42988  97.4530 322.6571 0001266 108.4549 251.6831 15.34954592485036
SKYSAT-C9               
1 42989U 17068C   26186.15204287  .00020658  00000+0  48482-3 0  9995
2 42989  97.4452 324.2875 0009276  76.6476 283.5805 15.42030350485524
SKYSAT-C8               
1 42990U 17068D   26185.84000391  .00017285  00000+0  47416-3 0  9990
2 42990  97.4548 322.7320 0001197  96.1071 264.0309 15.37337781485022
SKYSAT-C7               
1 42991U 17068E   26185.37852402  .00015861  00000+0  43598-3 0  9992
2 42991  97.4560 323.2545 0006585  55.9275 304.2594 15.37274879485017
SKYSAT-C6               
1 42992U 17068F   26185.82229056  .00015608  00000+0  47208-3 0  9997
2 42992  97.4596 323.6042 0005208 103.9495 256.2328 15.34283314485025
SKYSAT-C12              
1 43797U 18099AR  26185.79309869  .00034202  00000+0  62039-3 0  9993
2 43797  96.9249 208.3274 0006014  94.2180 265.9760 15.49507169424587
FLOCK 4Q-16             
1 58271U 23174R   26186.18399480  .00030277  00000+0  53873-3 0  9992
2 58271  97.3829 274.7190 0007029 105.7178 254.4850 15.50076029148365
FLOCK 4Q-11             
1 58273U 23174T   26186.16010551  .00038735  00000+0  67790-3 0  9991
2 58273  97.3862 275.3182 0006828 101.5724 258.6295 15.50499053148375
FLOCK 4Q-28             
1 58280U 23174AA  26186.18632354  .00052462  00000+0  74331-3 0  9994
2 58280  97.3884 277.9889 0005573  92.8100 267.3793 15.56302133148542
FLOCK 4Q-27             
1 58282U 23174AC  26184.77495542  .00101633  00000+0  14249-2 0  9991
2 58282  97.3809 275.9423 0004799  98.0377 262.1423 15.56401612148338
PELICAN-1               
1 58296U 23174AS  26183.26411404  .00011586  00000+0  87814-4 0  9991
2 58296  97.4008 284.5560 0003297 150.8230 209.3218 15.72540585148538
FLOCK 4Q-7              
1 58318U 23174BQ  26186.20994579  .00056235  00000+0  78100-3 0  9999
2 58318  97.3910 278.3254 0005473  79.9664 280.2208 15.56828102148550
FLOCK 4Q-2              
1 58320U 23174BS  26186.27379319  .00033663  00000+0  59020-3 0  9998
2 58320  97.3834 275.1518 0005743  81.7357 278.4545 15.50483665148408
FLOCK 4Q-9              
1 58322U 23174BU  26185.77743350  .00046485  00000+0  80123-3 0  9998
2 58322  97.3860 274.7434 0006646  84.8845 275.3165 15.50892595148310
FLOCK 4Q-4              
1 58327U 23174BZ  26185.78193271  .00038088  00000+0  69087-3 0  9991
2 58327  97.3820 273.8919 0006651 104.6884 255.5104 15.49485021148288
FLOCK 4Q-13             
1 58328U 23174CA  26186.04498885  .00041104  00000+0  66931-3 0  9999
2 58328  97.4003 277.3920 0006653  87.0268 273.1746 15.52517509148443
FLOCK 4BE-18            
1 60480U 24149N   26185.53569073  .00044602  00000+0  10259-2 0  9992
2 60480  97.3719 269.4528 0004335 175.7770 184.3515 15.42509485104983
FLOCK 4BE-7             
1 60481U 24149P   26186.14410370  .00038963  00000+0  93941-3 0  9999
2 60481  97.3752 269.3746 0003575 176.2324 183.8951 15.41124277105012
FLOCK 4BE-36            
1 60486U 24149U   26186.14610528  .00028121  00000+0  63205-3 0  9996
2 60486  97.3738 270.7961 0003967 180.9130 179.2111 15.43300611105127
FLOCK 4BE-25            
1 60487U 24149V   26186.03254181  .00023808  00000+0  61081-3 0  9991
2 60487  97.3790 269.3090 0002971 165.3909 194.7423 15.39333591104987
FLOCK 4BE-31            
1 60488U 24149W   26186.16021238  .00034015  00000+0  72486-3 0  9994
2 60488  97.3792 271.7214 0003021 176.4402 183.6869 15.44847066105157
FLOCK 4BE-20            
1 60489U 24149X   26186.13490253  .00025376  00000+0  66618-3 0  9999
2 60489  97.3689 268.2457 0004150 181.5629 178.5604 15.38609551104972
FLOCK 4BE-23            
1 60490U 24149Y   26186.12989231  .00023630  00000+0  62964-3 0  9990
2 60490  97.3774 268.6268 0003705 184.9278 175.1931 15.38167122104952
FLOCK 4BE-17            
1 60492U 24149AA  26186.02418053  .00026154  00000+0  64893-3 0  9997
2 60492  97.3765 269.5399 0003641 172.7146 187.4154 15.40335602105000
FLOCK 4BE-22            
1 60494U 24149AC  26186.18434426  .00026263  00000+0  62188-3 0  9994
2 60494  97.3727 269.9220 0003978 183.7840 176.3377 15.41749892105075
FLOCK 4BE-34            
1 60495U 24149AD  26186.13679238  .00026670  00000+0  63209-3 0  9999
2 60495  97.3777 270.7077 0003870 190.7052 169.4113 15.41720122105093
FLOCK 4BE-32            
1 60497U 24149AF  26186.22299910  .00030333  00000+0  69238-3 0  9995
2 60497  97.3713 270.3521 0004027 187.3580 172.7609 15.42823453105110
FLOCK 4BE-11            
1 60501U 24149AK  26186.20812668  .00029149  00000+0  64808-3 0  9991
2 60501  97.3692 270.5846 0004138 187.4957 172.6229 15.43616389105134
FLOCK 4BE-24            
1 60505U 24149AP  26186.19315268  .00034689  00000+0  76554-3 0  9993
2 60505  97.3708 270.8328 0004214 201.2673 158.8400 15.43802133105141
TANAGER-1               
1 60507U 24149AR  26183.51180593  .00000446  00000+0  11461-4 0  9990
2 60507  97.2319 277.7150 0002331 253.4701 106.6292 15.44477537105404
FLOCK 4BE-29            
1 60509U 24149AT  26186.19192343  .00035566  00000+0  75865-3 0  9993
2 60509  97.3805 272.3430 0002699 201.8017 158.3118 15.44810180105195
FLOCK 4BE-2             
1 60511U 24149AV  26185.77098520  .00101305  00000+0  15047-2 0  9991
2 60511  97.3825 273.5921 0004739 202.0370 158.0681 15.54828365105232
FLOCK 4BE-13            
1 60512U 24149AW  26186.19482062  .00024927  00000+0  57768-3 0  9998
2 60512  97.3717 270.7988 0004290 186.4208 173.6985 15.42406741105149
FLOCK 4BE-27            
1 60513U 24149AX  26186.19128640  .00016314  00000+0  48562-3 0  9991
2 60513  97.3820 268.0543 0003002 219.1109 140.9918 15.34784182104901
FLOCK 4BE-9             
1 60514U 24149AY  26185.49228628  .00025146  00000+0  60392-3 0  9999
2 60514  97.3787 269.9371 0002656 203.8960 156.2164 15.41334973104980
FLOCK 4BE-6             
1 60516U 24149BA  26186.18469298  .00025370  00000+0  63430-3 0  9993
2 60516  97.3782 269.9607 0003387 205.5099 154.5980 15.40109178105044
FLOCK 4BE-14            
1 60517U 24149BB  26186.15147109  .00028493  00000+0  67748-3 0  9990
2 60517  97.3690 270.0804 0004317 210.5955 149.5041 15.41607019105091
FLOCK 4BE-1             
1 60518U 24149BC  26185.75950135  .00030951  00000+0  69699-3 0  9996
2 60518  97.3775 271.0254 0004092 210.7594 149.3415 15.43223831105087
FLOCK 4BE-28            
1 60519U 24149BD  26185.81204371  .00039100  00000+0  81168-3 0  9998
2 60519  97.3744 271.8577 0004151 205.2896 154.8150 15.45585758105167
FLOCK 4BE-5             
1 60559U 24149CV  26186.21461128  .00024524  00000+0  59909-3 0  9994
2 60559  97.3837 270.3940 0003067 203.6949 156.4157 15.40823081105050
FLOCK 4BE-3             
1 60561U 24149CX  26186.18887109  .00030315  00000+0  70792-3 0  9992
2 60561  97.3690 270.2799 0004035 199.9964 160.1126 15.42139466105115
FLOCK 4BE-19            
1 60563U 24149CZ  26186.19907111  .00039002  00000+0  81772-3 0  9993
2 60563  97.3738 271.9177 0004910 206.8432 153.2563 15.45291049105205
FLOCK 4G-8              
1 62613U 25009E   26186.20250632  .00017048  00000+0  58701-3 0  9990
2 62613  97.4003 268.1352 0003077 231.4207 128.6758 15.30105913 81673
FLOCK 4G-13             
1 62621U 25009N   26186.14527079  .00136601  00000+0  26047-2 0  9998
2 62621  97.3945 269.7655 0005694 223.0558 137.0247 15.47646713 81776
FLOCK 4G-9              
1 62622U 25009P   26186.14847799  .00015563  00000+0  56513-3 0  9998
2 62622  97.3954 266.9682 0003248 249.7053 110.3837 15.28384818 81609
FLOCK 4G-7              
1 62624U 25009R   26186.18399001  .00018520  00000+0  64554-3 0  9992
2 62624  97.3938 267.4026 0001577 219.1172 140.9955 15.29691513 81656
FLOCK 4G-12             
1 62625U 25009S   26186.17875937  .00019717  00000+0  68839-3 0  9998
2 62625  97.4016 267.9373 0003216 228.6206 131.4758 15.29621526 81653
FLOCK 4G-11             
1 62629U 25009W   26185.64102247  .00019647  00000+0  68421-3 0  9999
2 62629  97.3918 266.9723 0001553 228.9228 131.1878 15.29709073 81580
PELICAN-2               
1 62631U 25009Y   26185.71177882  .00000079  00000+0  39302-5 0  9994
2 62631  97.2298 276.3998 0002156 124.6492 235.4958 15.40640974 82256
FLOCK 4G-26             
1 62633U 25009AA  26186.17911502  .00021035  00000+0  72781-3 0  9993
2 62633  97.4011 268.0948 0002633 213.8730 146.2342 15.29904780 81667
FLOCK 4G-28             
1 62634U 25009AB  26186.17887595  .00015274  00000+0  44959-3 0  9992
2 62634  97.4022 270.7990 0001179 183.3038 176.8198 15.35156534 81844
FLOCK 4G-20             
1 62636U 25009AD  26186.17028440  .00226654  00000+0  29132-2 0  9991
2 62636  97.3844 271.2012 0005601 225.7630 134.3166 15.58307659 81914
